QZS-1R                  
1 49336U 21096A   24203.60882412 -.00000275  00000+0  00000+0 0  9998
2 49336  36.0112  90.0069 0758579 272.1267 288.5323  1.00246401 10024
